start=new Date('2023-01-17T00:00:00.000Z').valueOf();
sats=[{"OBJECT_ID":"2022-029BE","PERIAPSIS":"538.130","MEAN_ANOMALY":"309.7459","EPOCH":"2023-01-16T17:00:50.637024","OBJECT_NAME":"STARLINK-3682","CLASSIFICATION_TYPE":"U","REV_AT_EPOCH":"4763","ECCENTRICITY":"0.00023900","DECAY_DATE":null,"OBJECT_TYPE":"PAYLOAD","TIME_SYSTEM":"UTC","BSTAR":"-0.00031956000000","ELEMENT_SET_NO":"999","TLE_LINE1":"1 52140U 22029BE  23016.70891941 -.00005369  00000-0 -31956-3 0  9990","MEAN_MOTION_DOT":"-0.00005369","LAUNCH_DATE":"2022-03-19","GP_ID":"223252087","FILE":"3750956","COUNTRY_CODE":"US","SEMIMAJOR_AXIS":"6917.918","APOAPSIS":"541.436","PERIOD":"95.438","MEAN_ELEMENT_THEORY":"SGP4","RA_OF_ASC_NODE":"182.6183","MEAN_MOTION_DDOT":"0.0000000000000","TLE_LINE2":"2 52140  53.2142 182.6183 0002390  50.3743 309.7459 15.08827695 47634","INCLINATION":"53.2142","ARG_OF_PERICENTER":"50.3743","REF_FRAME":"TEME","CENTER_NAME":"EARTH","EPHEMERIS_TYPE":"0","RCS_SIZE":"LARGE","SITE":"AFETR","NORAD_CAT_ID":"52140","MEAN_MOTION":"15.08827695"},{"FILE":"3750956","GP_ID":"223252095","COUNTRY_CODE":"US","LAUNCH_DATE":"2022-04-21","SEMIMAJOR_AXIS":"6917.880","APOAPSIS":"541.960","MEAN_ELEMENT_THEORY":"SGP4","RA_OF_ASC_NODE":"222.0387","PERIOD":"95.438","MEAN_MOTION_DDOT":"0.0000000000000","TLE_LINE2":"2 52261  53.2168 222.0387 0003202  42.1115 318.0122 15.08840132 41079","ARG_OF_PERICENTER":"42.1115","INCLINATION":"53.2168","REF_FRAME":"TEME","CENTER_NAME":"EARTH","EPHEMERIS_TYPE":"0","SITE":"AFETR","RCS_SIZE":"LARGE","MEAN_MOTION":"15.08840132","NORAD_CAT_ID":"52261","PERIAPSIS":"537.530","OBJECT_ID":"2022-041A","MEAN_ANOMALY":"318.0122","EPOCH":"2023-01-16T20:06:19.697472","OBJECT_NAME":"STARLINK-3810","CLASSIFICATION_TYPE":"U","ECCENTRICITY":"0.00032020","REV_AT_EPOCH":"4107","TIME_SYSTEM":"UTC","OBJECT_TYPE":"PAYLOAD","DECAY_DATE":null,"BSTAR":"0.00011214000000","ELEMENT_SET_NO":"999","MEAN_MOTION_DOT":"0.00001497","TLE_LINE1":"1 52261U 22041A   23016.83772798  .00001497  00000-0  11214-3 0  9991"},{"COUNTRY_CODE":"US","FILE":"3750956","GP_ID":"223252345","LAUNCH_DATE":"2022-04-21","APOAPSIS":"541.224","SEMIMAJOR_AXIS":"6917.874","RA_OF_ASC_NODE":"222.0007","MEAN_ELEMENT_THEORY":"SGP4","PERIOD":"95.437","TLE_LINE2":"2 52262  53.2159 222.0007 0002146  55.8154 304.3042 15.08841981 41071","INCLINATION":"53.2159","MEAN_MOTION_DDOT":"0.0000000000000","ARG_OF_PERICENTER":"55.8154","CENTER_NAME":"EARTH","REF_FRAME":"TEME","EPHEMERIS_TYPE":"0","SITE":"AFETR","RCS_SIZE":"LARGE","MEAN_MOTION":"15.08841981","NORAD_CAT_ID":"52262","PERIAPSIS":"538.255","OBJECT_ID":"2022-041B","OBJECT_NAME":"STARLINK-3761","EPOCH":"2023-01-16T20:13:00.280704","MEAN_ANOMALY":"304.3042","CLASSIFICATION_TYPE":"U","ECCENTRICITY":"0.00021460","REV_AT_EPOCH":"4107","TIME_SYSTEM":"UTC","OBJECT_TYPE":"PAYLOAD","DECAY_DATE":null,"BSTAR":"-0.00011603000000","MEAN_MOTION_DOT":"-0.00002135","TLE_LINE1":"1 52262U 22041B   23016.84236436 -.00002135  00000-0 -11603-3 0  9991","ELEMENT_SET_NO":"999"},{"PERIOD":"95.438","MEAN_ELEMENT_THEORY":"SGP4","RA_OF_ASC_NODE":"222.0194","MEAN_MOTION_DDOT":"0.0000000000000","TLE_LINE2":"2 52263  53.2161 222.0194 0002289  50.1120 310.0073 15.08835566 41071","INCLINATION":"53.2161","ARG_OF_PERICENTER":"50.1120","LAUNCH_DATE":"2022-04-21","FILE":"3750956","GP_ID":"223253593","COUNTRY_CODE":"US","SEMIMAJOR_AXIS":"6917.894","APOAPSIS":"541.342","RCS_SIZE":"LARGE","SITE":"AFETR","NORAD_CAT_ID":"52263","MEAN_MOTION":"15.08835566","REF_FRAME":"TEME","CENTER_NAME":"EARTH","EPHEMERIS_TYPE":"0","CLASSIFICATION_TYPE":"U","REV_AT_EPOCH":"4107","ECCENTRICITY":"0.00022890","PERIAPSIS":"538.175","OBJECT_ID":"2022-041C","EPOCH":"2023-01-16T20:11:37.812768","MEAN_ANOMALY":"310.0073","OBJECT_NAME":"STARLINK-3786","ELEMENT_SET_NO":"999","TLE_LINE1":"1 52263U 22041C   23016.84140987  .00000371  00000-0  41421-4 0  9997","MEAN_MOTION_DOT":"0.00000371","OBJECT_TYPE":"PAYLOAD","DECAY_DATE":null,"TIME_SYSTEM":"UTC","BSTAR":"0.00004142100000"},{"SITE":"AFETR","RCS_SIZE":"LARGE","MEAN_MOTION":"15.08839974","NORAD_CAT_ID":"52264","REF_FRAME":"TEME","CENTER_NAME":"EARTH","EPHEMERIS_TYPE":"0","MEAN_ELEMENT_THEORY":"SGP4","RA_OF_ASC_NODE":"222.0546","PERIOD":"95.438","ARG_OF_PERICENTER":"43.0802","TLE_LINE2":"2 52264  53.2160 222.0546 0001971  43.0802 317.0344 15.08839974 41072","MEAN_MOTION_DDOT":"0.0000000000000","INCLINATION":"53.2160","GP_ID":"223253347","FILE":"3750956","COUNTRY_CODE":"US","LAUNCH_DATE":"2022-04-21","SEMIMAJOR_AXIS":"6917.880","APOAPSIS":"541.109","ELEMENT_SET_NO":"999","TLE_LINE1":"1 52264U 22041D   23016.83404594  .00000776  00000-0  66844-4 0  9999","MEAN_MOTION_DOT":"0.00000776","TIME_SYSTEM":"UTC","OBJECT_TYPE":"PAYLOAD","DECAY_DATE":null,"BSTAR":"0.00006684400000","CLASSIFICATION_TYPE":"U","ECCENTRICITY":"0.00019710","REV_AT_EPOCH":"4107","OBJECT_ID":"2022-041D","PERIAPSIS":"538.382","MEAN_ANOMALY":"317.0344","EPOCH":"2023-01-16T20:01:01.569216","OBJECT_NAME":"STARLINK-3795"},{"TLE_LINE1":"1 52265U 22041E   23016.83036976  .00000983  00000-0  79882-4 0  9991","MEAN_MOTION_DOT":"0.00000983","ELEMENT_SET_NO":"999","BSTAR":"0.00007988200000","OBJECT_TYPE":"PAYLOAD","DECAY_DATE":null,"TIME_SYSTEM":"UTC","ECCENTRICITY":"0.00021990","REV_AT_EPOCH":"4107","CLASSIFICATION_TYPE":"U","OBJECT_NAME":"STARLINK-3740","EPOCH":"2023-01-16T19:55:43.947264","MEAN_ANOMALY":"305.4128","PERIAPSIS":"538.231","OBJECT_ID":"2022-041E","NORAD_CAT_ID":"52265","MEAN_MOTION":"15.08837704","RCS_SIZE":"LARGE","SITE":"AFETR","EPHEMERIS_TYPE":"0","CENTER_NAME":"EARTH","REF_FRAME":"TEME","INCLINATION":"53.2162","TLE_LINE2":"2 52265  53.2162 222.0703 0002199  54.7070 305.4128 15.08837704 41079","MEAN_MOTION_DDOT":"0.0000000000000","ARG_OF_PERICENTER":"54.7070","PERIOD":"95.438","RA_OF_ASC_NODE":"222.0703","MEAN_ELEMENT_THEORY":"SGP4","APOAPSIS":"541.274","SEMIMAJOR_AXIS":"6917.887","LAUNCH_DATE":"2022-04-21","COUNTRY_CODE":"US","FILE":"3750956","GP_ID":"223252596"},{"OBJECT_TYPE":"PAYLOAD","DECAY_DATE":null,"TIME_SYSTEM":"UTC","BSTAR":"0.00009236200000","TLE_LINE1":"1 52266U 22041F   23016.82669017  .00001182  00000-0  92362-4 0  9999","MEAN_MOTION_DOT":"0.00001182","ELEMENT_SET_NO":"999","OBJECT_ID":"2022-041F","PERIAPSIS":"538.495","OBJECT_NAME":"STARLINK-3739","EPOCH":"2023-01-16T19:50:26.030688","MEAN_ANOMALY":"305.1672","CLASSIFICATION_TYPE":"U","REV_AT_EPOCH":"4107","ECCENTRICITY":"0.00018340","CENTER_NAME":"EARTH","REF_FRAME":"TEME","EPHEMERIS_TYPE":"0","RCS_SIZE":"LARGE","SITE":"AFETR","NORAD_CAT_ID":"52266","MEAN_MOTION":"15.08833968","LAUNCH_DATE":"2022-04-21","COUNTRY_CODE":"US","GP_ID":"223252846","FILE":"3750956","APOAPSIS":"541.033","SEMIMAJOR_AXIS":"6917.899","PERIOD":"95.438","RA_OF_ASC_NODE":"222.0836","MEAN_ELEMENT_THEORY":"SGP4","TLE_LINE2":"2 52266  53.2167 222.0836 0001834  54.9492 305.1672 15.08833968 41076","MEAN_MOTION_DDOT":"0.0000000000000","ARG_OF_PERICENTER":"54.9492","INCLINATION":"53.2167"},{"CENTER_NAME":"EARTH","REF_FRAME":"TEME","EPHEMERIS_TYPE":"0","SITE":"AFETR","RCS_SIZE":"LARGE","MEAN_MOTION":"15.08839941","NORAD_CAT_ID":"52267","COUNTRY_CODE":"US","GP_ID":"223253093","FILE":"3750956","LAUNCH_DATE":"2022-04-21","APOAPSIS":"541.195","SEMIMAJOR_AXIS":"6917.881","RA_OF_ASC_NODE":"222.0960","MEAN_ELEMENT_THEORY":"SGP4","PERIOD":"95.438","TLE_LINE2":"2 52267  53.2151 222.0960 0002095  51.4520 308.6660 15.08839941 41074","INCLINATION":"53.2151","MEAN_MOTION_DDOT":"0.0000000000000","ARG_OF_PERICENTER":"51.4520","TIME_SYSTEM":"UTC","DECAY_DATE":null,"OBJECT_TYPE":"PAYLOAD","BSTAR":"-0.00011130000000","MEAN_MOTION_DOT":"-0.00002059","TLE_LINE1":"1 52267U 22041G   23016.82300985 -.00002059  00000-0 -11130-3 0  9995","ELEMENT_SET_NO":"999","PERIAPSIS":"538.296","OBJECT_ID":"2022-041G","OBJECT_NAME":"STARLINK-3748","EPOCH":"2023-01-16T19:45:08.051040","MEAN_ANOMALY":"308.6660","CLASSIFICATION_TYPE":"U","REV_AT_EPOCH":"4107","ECCENTRICITY":"0.00020950"},{"SITE":"AFETR","RCS_SIZE":"LARGE","MEAN_MOTION":"15.08835889","NORAD_CAT_ID":"52268","REF_FRAME":"TEME","CENTER_NAME":"EARTH","EPHEMERIS_TYPE":"0","MEAN_ELEMENT_THEORY":"SGP4","RA_OF_ASC_NODE":"222.4516","PERIOD":"95.438","MEAN_MOTION_DDOT":"0.0000000000000","TLE_LINE2":"2 52268  53.2138 222.4516 0001953  57.2511 302.8669 15.08835889 42283","ARG_OF_PERICENTER":"57.2511","INCLINATION":"53.2138","GP_ID":"223213817","FILE":"3750142","COUNTRY_CODE":"US","LAUNCH_DATE":"2022-04-21","SEMIMAJOR_AXIS":"6917.893","APOAPSIS":"541.109","ELEMENT_SET_NO":"999","MEAN_MOTION_DOT":"0.00000948","TLE_LINE1":"1 52268U 22041H   23016.74573184  .00000948  00000-0  77656-4 0  9999","TIME_SYSTEM":"UTC","DECAY_DATE":null,"OBJECT_TYPE":"PAYLOAD","BSTAR":"0.00007765600000","CLASSIFICATION_TYPE":"U","ECCENTRICITY":"0.00019530","REV_AT_EPOCH":"4228","PERIAPSIS":"538.407","OBJECT_ID":"2022-041H","MEAN_ANOMALY":"302.8669","EPOCH":"2023-01-16T17:53:51.230976","OBJECT_NAME":"STARLINK-3746"},{"BSTAR":"0.00007418400000","OBJECT_TYPE":"PAYLOAD","DECAY_DATE":null,"TIME_SYSTEM":"UTC","TLE_LINE1":"1 52269U 22041J   23016.81932983  .00000893  00000-0  74184-4 0  9996","MEAN_MOTION_DOT":"0.00000893","ELEMENT_SET_NO":"999","OBJECT_NAME":"STARLINK-3791","EPOCH":"2023-01-16T19:39:50.097312","MEAN_ANOMALY":"277.8928","OBJECT_ID":"2022-041J","PERIAPSIS":"538.541","ECCENTRICITY":"0.00017520","REV_AT_EPOCH":"4107","CLASSIFICATION_TYPE":"U","EPHEMERIS_TYPE":"0","CENTER_NAME":"EARTH","REF_FRAME":"TEME","NORAD_CAT_ID":"52269","MEAN_MOTION":"15.08837488","RCS_SIZE":"LARGE","SITE":"AFETR","APOAPSIS":"540.965","SEMIMAJOR_AXIS":"6917.888","LAUNCH_DATE":"2022-04-21","COUNTRY_CODE":"US","GP_ID":"223252096","FILE":"3750956","TLE_LINE2":"2 52269  53.2128 222.1181 0001752  82.2262 277.8928 15.08837488 41078","MEAN_MOTION_DDOT":"0.0000000000000","INCLINATION":"53.2128","ARG_OF_PERICENTER":"82.2262","PERIOD":"95.438","RA_OF_ASC_NODE":"222.1181","MEAN_ELEMENT_THEORY":"SGP4"}];
